{
  "norad_id": 63426,
  "name": "STARLINK-33615",
  "history": [
    {
      "epoch": "2026-03-28T01:09:14.327136Z",
      "apogee_km": 484.237303714016,
      "perigee_km": 481.8423413323462,
      "latitude_deg": 2.5695834687512047e-05,
      "longitude_deg": 160.9020031471155,
      "height_km": 482.847591308799,
      "semi_major_axis_km": 6861.176822523181,
      "eccentricity": 0.00017453,
      "inclination_deg": 42.997,
      "raan_deg": 3.6858,
      "arg_perigee_deg": 268.5103,
      "mean_anomaly_deg": 91.5549,
      "mean_motion_rev_day": 15.27583097
    },
    {
      "epoch": "2026-03-29T02:15:44.378496Z",
      "apogee_km": 483.9229051620323,
      "perigee_km": 481.9373123407586,
      "latitude_deg": 1.2533394787646493e-05,
      "longitude_deg": 137.33881159096677,
      "height_km": 482.7375971563265,
      "semi_major_axis_km": 6861.067108751395,
      "eccentricity": 0.0001447,
      "inclination_deg": 42.9958,
      "raan_deg": 357.779,
      "arg_perigee_deg": 268.1976,
      "mean_anomaly_deg": 91.871,
      "mean_motion_rev_day": 15.27619738
    }
  ]
}